IRIDIUM 63              
1 25286U 98021B   25289.37644294  .00000654  00000+0  21570-3 0  9990
2 25286  86.4022  31.2671 0001949  96.4410 263.7009 14.36662382441247
IRIDIUM 69              
1 25319U 98026A   25289.57211143  .00000935  00000+0  28445-3 0  9997
2 25319  86.3993  44.0896 0002578  33.4717 326.6645 14.41112627440546
IRIDIUM 71              
1 25320U 98026B   25289.56379047  .00000484  00000+0  14357-3 0  9992
2 25320  86.4002  38.7702 0003901  69.6606 290.5013 14.41262367441079
IRIDIUM 73              
1 25344U 98032C   25289.43911929  .00000781  00000+0  18896-3 0  9994
2 25344  86.4461 355.3330 0001729  81.1594 278.9807 14.51881620448157
IRIDIUM 82              
1 25467U 98051A   25289.40022993  .00057680  00000+0  13126-2 0  9992
2 25467  86.3638  49.8128 0072128 194.2648 165.6572 15.39980398442553
